[{"OBJECT_NAME":"UHETSAT","OBJECT_ID":"2023-185E","EPOCH":"2026-03-09T22:39:26.455680","MEAN_MOTION":15.29797662,"ECCENTRICITY":0.00118435,"INCLINATION":97.3584,"RA_OF_ASC_NODE":137.3576,"ARG_OF_PERICENTER":307.7346,"MEAN_ANOMALY":52.2821,"EPHEMERIS_TYPE":0,"CLASSIFICATION_TYPE":"U","NORAD_CAT_ID":58466,"ELEMENT_SET_NO":999,"REV_AT_EPOCH":12611,"BSTAR":0.00030513019,"MEAN_MOTION_DOT":8.749e-5,"MEAN_MOTION_DDOT":0},{"OBJECT_NAME":"STARLINK-35469","OBJECT_ID":"2025-223K","EPOCH":"2026-03-09T21:32:11.078880","MEAN_MOTION":15.30196098,"ECCENTRICITY":0.0001175,"INCLINATION":53.1585,"RA_OF_ASC_NODE":293.4837,"ARG_OF_PERICENTER":57.8257,"MEAN_ANOMALY":302.2858,"EPHEMERIS_TYPE":0,"CLASSIFICATION_TYPE":"U","NORAD_CAT_ID":65863,"ELEMENT_SET_NO":999,"REV_AT_EPOCH":2423,"BSTAR":0.0011202105,"MEAN_MOTION_DOT":0.00032961,"MEAN_MOTION_DDOT":0}]
